GALAXY 16               
1 29236C 06023A   21067.00000000 -.00000039  00000-0  00000-0 0   678
2 29236   0.0367 287.4701 0002860 100.5270  38.8877  1.00271074    14
GALAXY 16               
1 29236C 06023A   21070.00000000 -.00000037  00000-0  00000-0 0   704
2 29236   0.0177 226.5443 0002727 158.4209  44.8763  1.00267469    10
GALAXY 16           [PM]
1 29236C 06023A   21070.06181713 -.00000036  00000-0  00000-0 0   700
2 29236   0.0113 210.7006 0002626 160.9370  80.5192  1.00271453    16
GALAXY 17               
1 31307C 07016B   21067.00000000 -.00000084  00000-0  00000-0 0   673
2 31307   0.0153 112.7797 0003109 247.7036  74.4071  1.00272024    13
GALAXY 17               
1 31307C 07016B   21070.00000000 -.00000084  00000-0  00000-0 0   701
2 31307   0.0210 117.2176 0003054 245.7358  74.8999  1.00271727    14
GALAXY 17           [PM]
1 31307C 07016B   21071.98950232 -.00000084  00000-0  00000-0 0   711
2 31307   0.0247 116.5274 0003044 244.7575  74.7525  1.00272590    17
INTELSAT 11             
1 32253C 07044B   21067.00000000  .00000049  00000-0  00000-0 0   675
2 32253   0.0148 226.6992 0002188 155.7825 100.4282  1.00269727    10
INTELSAT 11         [PM]
1 32253C 07044B   21069.33048611 -.00000179  00000-0  00000-0 0   690
2 32253   0.0036 183.9760 0001576 173.6741 246.5383  1.00272067    15
INTELSAT 11             
1 32253C 07044B   21070.00000000 -.00000173  00000-0  00000-0 0   702
2 32253   0.0032 182.4082 0001549 175.3356 128.1303  1.00271942    11
INTELSAT 11         [PM]
1 32253C 07044B   21070.53222222 -.00000172  00000-0  00000-0 0   701
2 32253   0.0028 180.4945 0001514 178.8157 318.6884  1.00271434    17
HORIZONS 2              
1 32388C 07063B   21067.00000000 -.00000092  00000-0  00000-0 0   674
2 32388   0.0032 115.1545 0003091 252.6260 242.9506  1.00271456    14
HORIZONS 2          [PM]
1 32388C 07063B   21069.49516204 -.00000092  00000-0  00000-0 0   699
2 32388   0.0083 118.7417 0002641 234.3049  78.4075  1.00273196    15
HORIZONS 2              
1 32388C 07063B   21070.00000000 -.00000092  00000-0  00000-0 0   702
2 32388   0.0086 121.6381 0002755 234.2354 257.8233  1.00272919    16
HORIZONS 2          [PM]
1 32388C 07063B   21070.55364583 -.00000092  00000-0  00000-0 0   701
2 32388   0.0093 122.0276 0002680 233.1653  98.3644  1.00272596    14
GALAXY 18               
1 32951C 08024A   21067.00000000  .00000116  00000-0  00000-0 0   674
2 32951   0.0056 130.6359 0002967 233.1417  39.1117  1.00272012    13
GALAXY 18           [PM]
1 32951C 08024A   21069.60554398  .00000115  00000-0  00000-0 0   697
2 32951   0.0129 119.9498 0002722 224.5666 278.9378  1.00271367    11
GALAXY 18               
1 32951C 08024A   21070.00000000  .00000115  00000-0  00000-0 0   701
2 32951   0.0113 131.6924 0002785 226.3869  47.7681  1.00266509    14
INTELSAT 25             
1 33153C 08034A   21067.00000000 -.00000131  00000-0  00000-0 0   678
2 33153   0.0118 171.8537 0002927 181.8539 140.6933  1.00271116    10
INTELSAT 25             
1 33153C 08034A   21070.00000000 -.00000134  00000-0  00000-0 0   709
2 33153   0.0142 161.6320 0002823 192.4154 143.3047  1.00272587    19
INTELSAT 25         [PM]
1 33153C 08034A   21070.31578704 -.00000134  00000-0  00000-0 0   704
2 33153   0.0142 151.4153 0002809 195.7641 264.1694  1.00271516    12
GALAXY 19               
1 33376C 08045A   21067.00000000 -.00000049  00000-0  00000-0 0   675
2 33376   0.0129 221.2372 0002721 140.6264  67.0142  1.00273258    19
GALAXY 19           [PM]
1 33376C 08045A   21069.57847222 -.00000045  00000-0  00000-0 0   692
2 33376   0.0040 184.9663 0002706 178.1646 276.5563  1.00271451    19
GALAXY 19               
1 33376C 08045A   21070.00000000 -.00000066  00000-0  00000-0 0   702
2 33376   0.0035 182.6752 0002666 179.4799  69.6976  1.00271498    15
INTELSAT 14             
1 36097C 09064A   21067.00000000 -.00000184  00000-0  00000-0 0   670
2 36097   0.0035 145.2869 0002213 207.2535 128.3503  1.00271696    17
INTELSAT 14         [PM]
1 36097C 09064A   21069.96189815 -.00000182  00000-0  00000-0 0   699
2 36097   0.0087 141.1401 0002199 209.2127 119.7378  1.00273473    12
INTELSAT 14             
1 36097C 09064A   21070.00000000 -.00000182  00000-0  00000-0 0   706
2 36097   0.0087 141.2312 0002211 209.2048 133.4091  1.00273436    15
INTELSAT 15             
1 36106C 09067A   21067.00000000 -.00000095  00000-0  00000-0 0   675
2 36106   0.0202  99.5979 0002182 259.7516 251.7059  1.00271344    10
INTELSAT 15             
1 36106C 09067A   21070.00000000 -.00000150  00000-0  00000-0 0   705
2 36106   0.0008 196.6834 0002100 168.0770 249.2342  1.00269191    11
INTELSAT 15         [PM]
1 36106C 09067A   21070.55175926 -.00000093  00000-0  00000-0 0   701
2 36106   0.0000 194.1647 0002065 162.6526  96.3502  1.00272550    19
INTELSAT 16             
1 36397C 10006A   21067.00000000 -.00000155  00000-0  00000-0 0   679
2 36397   0.0221 104.0935 0001955 259.1802  86.4240  1.00271417    12
INTELSAT 16             
1 36397C 10006A   21070.00000000 -.00000190  00000-0  00000-0 0   706
2 36397   0.0013 189.5224 0001736 178.2784  84.8322  1.00268996    18
INTELSAT 16         [PM]
1 36397C 10006A   21070.03982639 -.00000237  00000-0  00000-0 0   708
2 36397   0.0011 189.1182 0001782 169.5788 108.3129  1.00273207    11
INTELSAT 17             
1 37238C 10065B   21067.00000000  .00000089  00000-0  00000-0 0   674
2 37238   0.0192 197.0832 0002884 175.2701 219.5307  1.00271476    18
INTELSAT 17         [PM]
1 37238C 10065B   21069.54053241  .00000089  00000-0  00000-0 0   692
2 37238   0.0181 178.7487 0002509 188.0326  62.2010  1.00271533    15
INTELSAT 17             
1 37238C 10065B   21070.00000000  .00000089  00000-0  00000-0 0   702
2 37238   0.0178 177.6050 0002751 194.3876 222.8508  1.00274950    16
INTELSAT NEW DAWN       
1 37392C 11016A   21067.00000000  .00000246  00000-0  00000-0 0   677
2 37392   0.0243 217.6496 0000797 185.1092 155.9216  1.00270964    18
INTELSAT NEW DAWN       
1 37392C 11016A   21070.00000000  .00000246  00000-0  00000-0 0   705
2 37392   0.0198 197.2589 0000838 214.1780 150.2051  1.00272452    15
INTELSAT NEW DAWN   [PM]
1 37392C 11016A   21074.71576389  .00000246  00000-0  00000-0 0   749
2 37392   0.0269 220.8802 0000542 231.8684  11.2287  1.00270552    12
INTELSAT 18             
1 37834C 11056A   21067.00000000  .00000383  00000-0  00000-0 0   674
2 37834   0.0207  27.3192 0002037 358.0015 320.5704  1.00268350    11
INTELSAT 18             
1 37834C 11056A   21070.00000000  .00000339  00000-0  00000-0 0   703
2 37834   0.0397 352.7909 0001620   5.9184 350.1311  1.00271593    10
INTELSAT 18         [PM]
1 37834C 11056A   21073.30597222  .00000142  00000-0  00000-0 0   731
2 37834   0.0101 255.0878 0001704 103.9475 103.2249  1.00270701    15
INTELSAT 22             
1 38098C 12011A   21067.00000000  .00000032  00000-0  00000-0 0   670
2 38098   0.0157 230.1814 0002689 128.4659 239.3413  1.00271060    15
INTELSAT 22         [PM]
1 38098C 12011A   21067.68340278  .00000033  00000-0  00000-0 0   679
2 38098   0.0111 213.2548 0002684 145.9778 125.4549  1.00271308    12
INTELSAT 22             
1 38098C 12011A   21070.00000000  .00000032  00000-0  00000-0 0   708
2 38098   0.0043 187.7222 0002640 172.8094 240.4147  1.00271450    12
INTELSAT 19             
1 38356C 12030A   21067.00000000  .00000026  00000-0  00000-0 0   671
2 38356   0.0171 234.1139 0002828 122.8919 334.8794  1.00272217    12
INTELSAT 19             
1 38356C 12030A   21070.00000000  .00000040  00000-0  00000-0 0   705
2 38356   0.0041 189.8951 0002696 168.0090 336.9417  1.00271877    17
INTELSAT 19         [PM]
1 38356C 12030A   21074.82120370  .00000005  00000-0  00000-0 0   747
2 38356   0.0000 169.8724 0002879 184.7056 280.6705  1.00271308    12
INTELSAT 20             
1 38740C 12043A   21067.00000000  .00000066  00000-0  00000-0 0   676
2 38740   0.0156 140.7975 0001240  20.7505  72.8383  1.00270331    14
INTELSAT 20             
1 38740C 12043A   21070.00000000  .00000066  00000-0  00000-0 0   704
2 38740   0.0161 148.9215 0001305  18.5907  69.8310  1.00270612    18
INTELSAT 20         [PM]
1 38740C 12043A   21070.01180556  .00000066  00000-0  00000-0 0   700
2 38740   0.0171 134.2624 0001253  25.7842  81.5542  1.00271927    19
INTELSAT 21             
1 38749C 12045A   21067.00000000 -.00000195  00000-0  00000-0 0   671
2 38749   0.0025 144.0552 0001926 216.5844 107.2555  1.00270975    16
INTELSAT 21         [PM]
1 38749C 12045A   21069.93973380 -.00000201  00000-0  00000-0 0   695
2 38749   0.0077 140.3413 0001870 215.5819  93.1616  1.00273148    13
INTELSAT 21             
1 38749C 12045A   21070.00000000 -.00000195  00000-0  00000-0 0   709
2 38749   0.0078 140.1967 0001888 215.8090 114.8347  1.00273116    16
INTELSAT 23             
1 38867C 12057A   21067.00000000 -.00000195  00000-0  00000-0 0   675
2 38867   0.0085 155.9004 0001579 198.1936 118.7815  1.00274406    16
INTELSAT 23             
1 38867C 12057A   21070.00000000 -.00000195  00000-0  00000-0 0   703
2 38867   0.0129 149.8132 0001487 204.9684 121.0762  1.00273259    16
INTELSAT 23         [PM]
1 38867C 12057A   21073.96266204 -.00000195  00000-0  00000-0 0   734
2 38867   0.0236 233.3019 0001473 115.0138 118.0256  1.00271475    11
INTELSAT 30             
1 40271C 14062A   21067.00000000 -.00000059  00000-0  00000-0 0   674
2 40271   0.0000 152.8860 0002232 323.6860 314.2690  1.00270737    16
INTELSAT 30         [PM]
1 40271C 14062A   21069.12430556 -.00000203  00000-0  00000-0 0   695
2 40271   0.0000 166.5283 0002278 313.4905 357.6595  1.00272882    12
INTELSAT 30             
1 40271C 14062A   21070.00000000 -.00000061  00000-0  00000-0 0   705
2 40271   0.0002 159.2330 0002213 320.2470 314.3138  1.00271166    15
